SL-8 R/B                
1 11574U 79089B   26095.86488333  .00000406  00000+0  13073-3 0  9992
2 11574  74.0704  40.7361 0016466 209.5418 150.4810 14.42370189440023
SL-14 R/B               
1 11672U 80005B   26095.84142639  .00000751  00000+0  73301-4 0  9999
2 11672  82.5107 281.4726 0017191  74.5137 285.7979 14.90964244480538
SL-8 R/B                
1 12139U 81003B   26095.48074868  .00026697  00000+0  66332-3 0  9997
2 12139  82.9349 265.2248 0259536  85.5930 277.4904 15.12250511318729
SL-3 R/B                
1 12465U 81046B   26095.83833296  .00014090  00000+0  32007-3 0  9999
2 12465  81.2294 257.1204 0018046 285.4934  74.4316 15.42716598442611
SL-3 R/B                
1 12904U 81103B   26095.80104713  .00006109  00000+0  26811-3 0  9991
2 12904  81.1605 181.6278 0013152 190.4179 169.6782 15.21717660977351
SL-3 R/B                
1 13068U 82013B   26095.79845036  .00004608  00000+0  19763-3 0  9992
2 13068  81.1718 128.9911 0023542  89.0692 271.3237 15.22271813408477
SL-3 R/B                
1 13154U 82039B   26095.82281896  .00003199  00000+0  19243-3 0  9995
2 13154  81.1551 184.6732 0028135 233.8547 126.0075 15.10247297385734
SL-3 R/B                
1 13403U 82079B   26095.83148398  .00005815  00000+0  22871-3 0  9994
2 13403  81.1469 161.0267 0025348  75.8039 284.6008 15.25173062381832
SL-14 R/B               
1 13553U 82092B   26095.78876025  .00000579  00000+0  62206-4 0  9993
2 13553  82.5649 116.0461 0019570 207.2758 326.2356 14.86692629332957
SL-3 R/B                
1 13819U 83010B   26095.73638301  .00017214  00000+0  33508-3 0  9993
2 13819  81.1027 329.0670 0015328 316.3015  43.7015 15.47306137362129
SL-3 R/B                
1 14208U 83075B   26095.80475501  .00012976  00000+0  33398-3 0  9993
2 14208  97.6137 101.4226 0022927 129.7030 230.6241 15.39106998334324
COSMOS 1536             
1 14699U 84013A   26095.44294948  .00008828  00000+0  35977-3 0  9990
2 14699  82.5422  81.2410 0014267 179.9442 180.1800 15.24226065276697
SL-14 R/B               
1 14820U 84027B   26095.76254041  .00000782  00000+0  86577-4 0  9990
2 14820  82.5430 219.6215 0016672 241.5187 118.4351 14.86008473251658
SL-8 R/B                
1 15483U 85006B   26095.66246672  .00000403  00000+0  14230-3 0  9990
2 15483  74.0462 211.5145 0017441 121.1122 340.4457 14.37803705157909
SL-12 R/B(2)            
1 15772U 85042D   26095.58784542  .00000175  00000+0  10020-3 0  9994
2 15772  71.1102  30.8988 0032849  83.4485  88.5582 14.21990815118219
SL-14 R/B               
1 15945U 85069B   26095.80638071  .00000687  00000+0  74737-4 0  9999
2 15945  82.5303 359.4423 0020325 101.5721 258.7779 14.86464471176864
SL-16 R/B               
1 16182U 85097B   26095.40516181 -.00000122  00000+0 -36920-4 0  9995
2 16182  71.0009  84.3069 0009150 227.6804 241.5783 14.16602420 91018
